STARLINK-3318           
1 50837U 22001AL  26004.28058352 -.00001254  00000+0 -60725-4 0  9990
2 50837  53.2182  98.2666 0001454  88.7400 271.3759 15.08837258220683
STARLINK-3320           
1 50839U 22001AN  26004.29805925  .00000547  00000+0  52461-4 0  9999
2 50839  53.2183 108.1849 0001535  94.5416 265.5751 15.08830721220531
STARLINK-3295           
1 50840U 22001AP  26004.29437996 -.00000378  00000+0 -56780-5 0  9993
2 50840  53.2176 108.2023 0001342  88.9244 271.1902 15.08834287220534
STARLINK-3300           
1 50841U 22001AQ  26004.30542156 -.00000461  00000+0 -10885-4 0  9999
2 50841  53.2180 108.1507 0001331  79.7492 280.3650 15.08834963220541
STARLINK-3302           
1 50842U 22001AR  26004.29070039 -.00001174  00000+0 -55689-4 0  9997
2 50842  53.2199 108.2125 0001633 128.8676 231.2462 15.08834283220534
STARLINK-3325           
1 50843U 22001AS  26004.24654528 -.00000235  00000+0  33188-5 0  9991
2 50843  53.2195 108.4147 0001692  91.4280 268.6906 15.08830406220538
STARLINK-3326           
1 50844U 22001AT  26004.27966111 -.00000003  00000+0  17917-4 0  9993
2 50844  53.2179 108.2674 0001353  96.5374 263.5772 15.08833688220549
STARLINK-3230           
1 50845U 22001AU  26004.25758195  .00000845  00000+0  71196-4 0  9995
2 50845  53.2195 108.3708 0001188  92.2384 267.8745 15.08834885220544
STARLINK-3308           
1 50846U 22001AV  26004.02207146  .00000350  00000+0  40055-4 0  9997
2 50846  53.2168 109.5390 0001345  89.5014 270.6132 15.08836653220502
STARLINK-3315           
1 50848U 22001AX  26004.27230437 -.00000193  00000+0  60019-5 0  9994
2 50848  53.2174 108.3012 0001627  87.4418 272.6761 15.08838064220549
STARLINK-3311           
1 50849U 22001AY  26004.01839442 -.00001667  00000+0 -86685-4 0  9992
2 50849  53.2189 109.4415 0001323  89.3682 270.7462 15.08826944220509
STARLINK-3312           
1 50850U 22001AZ  26003.88957734  .00001426  00000+0  10765-3 0  9999
2 50850  53.2193  70.0180 0001376  83.1241 276.9908 15.08842689221585
STARLINK-3314           
1 50851U 22001BA  26004.26125961  .00000876  00000+0  73126-4 0  9991
2 50851  53.2169 108.2731 0001235  95.6571 264.4563 15.08837161220546
STARLINK-3366           
1 51104U 22005A   26004.02297764 -.00000196  00000+0  57968-5 0  9995
2 51104  53.2168 219.4227 0001301  90.7642 269.3499 15.08838069219112
STARLINK-3350           
1 51105U 22005B   26003.86473630  .00000170  00000+0  28758-4 0  9990
2 51105  53.2164 220.1270 0001386  95.4641 264.6509 15.08839471219095
STARLINK-3176           
1 51106U 22005C   26004.30633864  .00000248  00000+0  33683-4 0  9997
2 51106  53.2172 218.1522 0001331  88.2979 271.8166 15.08838902219150
