[{"OBJECT_NAME":"STARLINK-3318","OBJECT_ID":"2022-001AL","EPOCH":"2026-01-04T06:44:02.416128","MEAN_MOTION":15.08837258,"ECCENTRICITY":0.00014544,"INCLINATION":53.2182,"RA_OF_ASC_NODE":98.2666,"ARG_OF_PERICENTER":88.74,"MEAN_ANOMALY":271.3759,"EPHEMERIS_TYPE":0,"CLASSIFICATION_TYPE":"U","NORAD_CAT_ID":50837,"ELEMENT_SET_NO":999,"REV_AT_EPOCH":22068,"BSTAR":-6.072517e-5,"MEAN_MOTION_DOT":-1.254e-5,"MEAN_MOTION_DDOT":0},{"OBJECT_NAME":"STARLINK-3320","OBJECT_ID":"2022-001AN","EPOCH":"2026-01-04T07:09:12.319200","MEAN_MOTION":15.08830721,"ECCENTRICITY":0.00015353,"INCLINATION":53.2183,"RA_OF_ASC_NODE":108.1849,"ARG_OF_PERICENTER":94.5416,"MEAN_ANOMALY":265.5751,"EPHEMERIS_TYPE":0,"CLASSIFICATION_TYPE":"U","NORAD_CAT_ID":50839,"ELEMENT_SET_NO":999,"REV_AT_EPOCH":22053,"BSTAR":5.2461411e-5,"MEAN_MOTION_DOT":5.47e-6,"MEAN_MOTION_DDOT":0},{"OBJECT_NAME":"STARLINK-3295","OBJECT_ID":"2022-001AP","EPOCH":"2026-01-04T07:03:54.428544","MEAN_MOTION":15.08834287,"ECCENTRICITY":0.0001342,"INCLINATION":53.2176,"RA_OF_ASC_NODE":108.2023,"ARG_OF_PERICENTER":88.9244,"MEAN_ANOMALY":271.1902,"EPHEMERIS_TYPE":0,"CLASSIFICATION_TYPE":"U","NORAD_CAT_ID":50840,"ELEMENT_SET_NO":999,"REV_AT_EPOCH":22053,"BSTAR":-5.677963e-6,"MEAN_MOTION_DOT":-3.78e-6,"MEAN_MOTION_DDOT":0},{"OBJECT_NAME":"STARLINK-3300","OBJECT_ID":"2022-001AQ","EPOCH":"2026-01-04T07:19:48.422784","MEAN_MOTION":15.08834963,"ECCENTRICITY":0.00013317,"INCLINATION":53.218,"RA_OF_ASC_NODE":108.1507,"ARG_OF_PERICENTER":79.7492,"MEAN_ANOMALY":280.365,"EPHEMERIS_TYPE":0,"CLASSIFICATION_TYPE":"U","NORAD_CAT_ID":50841,"ELEMENT_SET_NO":999,"REV_AT_EPOCH":22054,"BSTAR":-1.0885342e-5,"MEAN_MOTION_DOT":-4.61e-6,"MEAN_MOTION_DDOT":0},{"OBJECT_NAME":"STARLINK-3302","OBJECT_ID":"2022-001AR","EPOCH":"2026-01-04T06:58:36.513696","MEAN_MOTION":15.08834283,"ECCENTRICITY":0.00016332,"INCLINATION":53.2199,"RA_OF_ASC_NODE":108.2125,"ARG_OF_PERICENTER":128.8676,"MEAN_ANOMALY":231.2462,"EPHEMERIS_TYPE":0,"CLASSIFICATION_TYPE":"U","NORAD_CAT_ID":50842,"ELEMENT_SET_NO":999,"REV_AT_EPOCH":22053,"BSTAR":-5.5688857e-5,"MEAN_MOTION_DOT":-1.174e-5,"MEAN_MOTION_DDOT":0},{"OBJECT_NAME":"STARLINK-3325","OBJECT_ID":"2022-001AS","EPOCH":"2026-01-04T05:55:01.512192","MEAN_MOTION":15.08830406,"ECCENTRICITY":0.00016921,"INCLINATION":53.2195,"RA_OF_ASC_NODE":108.4147,"ARG_OF_PERICENTER":91.428,"MEAN_ANOMALY":268.6906,"EPHEMERIS_TYPE":0,"CLASSIFICATION_TYPE":"U","NORAD_CAT_ID":50843,"ELEMENT_SET_NO":999,"REV_AT_EPOCH":22053,"BSTAR":3.318801e-6,"MEAN_MOTION_DOT":-2.35e-6,"MEAN_MOTION_DDOT":0},{"OBJECT_NAME":"STARLINK-3326","OBJECT_ID":"2022-001AT","EPOCH":"2026-01-04T06:42:42.719904","MEAN_MOTION":15.08833688,"ECCENTRICITY":0.00013537,"INCLINATION":53.2179,"RA_OF_ASC_NODE":108.2674,"ARG_OF_PERICENTER":96.5374,"MEAN_ANOMALY":263.5772,"EPHEMERIS_TYPE":0,"CLASSIFICATION_TYPE":"U","NORAD_CAT_ID":50844,"ELEMENT_SET_NO":999,"REV_AT_EPOCH":22054,"BSTAR":1.7917091e-5,"MEAN_MOTION_DOT":-3.0e-8,"MEAN_MOTION_DDOT":0},{"OBJECT_NAME":"STARLINK-3230","OBJECT_ID":"2022-001AU","EPOCH":"2026-01-04T06:10:55.080480","MEAN_MOTION":15.08834885,"ECCENTRICITY":0.00011884,"INCLINATION":53.2195,"RA_OF_ASC_NODE":108.3708,"ARG_OF_PERICENTER":92.2384,"MEAN_ANOMALY":267.8745,"EPHEMERIS_TYPE":0,"CLASSIFICATION_TYPE":"U","NORAD_CAT_ID":50845,"ELEMENT_SET_NO":999,"REV_AT_EPOCH":22054,"BSTAR":7.1195904e-5,"MEAN_MOTION_DOT":8.45e-6,"MEAN_MOTION_DDOT":0},{"OBJECT_NAME":"STARLINK-3308","OBJECT_ID":"2022-001AV","EPOCH":"2026-01-04T00:31:46.974144","MEAN_MOTION":15.08836653,"ECCENTRICITY":0.00013456,"INCLINATION":53.2168,"RA_OF_ASC_NODE":109.539,"ARG_OF_PERICENTER":89.5014,"MEAN_ANOMALY":270.6132,"EPHEMERIS_TYPE":0,"CLASSIFICATION_TYPE":"U","NORAD_CAT_ID":50846,"ELEMENT_SET_NO":999,"REV_AT_EPOCH":22050,"BSTAR":4.0054673e-5,"MEAN_MOTION_DOT":3.5e-6,"MEAN_MOTION_DDOT":0},{"OBJECT_NAME":"STARLINK-3315","OBJECT_ID":"2022-001AX","EPOCH":"2026-01-04T06:32:07.097568","MEAN_MOTION":15.08838064,"ECCENTRICITY":0.00016271,"INCLINATION":53.2174,"RA_OF_ASC_NODE":108.3012,"ARG_OF_PERICENTER":87.4418,"MEAN_ANOMALY":272.6761,"EPHEMERIS_TYPE":0,"CLASSIFICATION_TYPE":"U","NORAD_CAT_ID":50848,"ELEMENT_SET_NO":999,"REV_AT_EPOCH":22054,"BSTAR":6.001948e-6,"MEAN_MOTION_DOT":-1.93e-6,"MEAN_MOTION_DDOT":0},{"OBJECT_NAME":"STARLINK-3311","OBJECT_ID":"2022-001AY","EPOCH":"2026-01-04T00:26:29.277888","MEAN_MOTION":15.08826944,"ECCENTRICITY":0.00013236,"INCLINATION":53.2189,"RA_OF_ASC_NODE":109.4415,"ARG_OF_PERICENTER":89.3682,"MEAN_ANOMALY":270.7462,"EPHEMERIS_TYPE":0,"CLASSIFICATION_TYPE":"U","NORAD_CAT_ID":50849,"ELEMENT_SET_NO":999,"REV_AT_EPOCH":22050,"BSTAR":-8.6685327e-5,"MEAN_MOTION_DOT":-1.667e-5,"MEAN_MOTION_DDOT":0},{"OBJECT_NAME":"STARLINK-3312","OBJECT_ID":"2022-001AZ","EPOCH":"2026-01-03T21:20:59.482176","MEAN_MOTION":15.08842689,"ECCENTRICITY":0.0001376,"INCLINATION":53.2193,"RA_OF_ASC_NODE":70.018,"ARG_OF_PERICENTER":83.1241,"MEAN_ANOMALY":276.9908,"EPHEMERIS_TYPE":0,"CLASSIFICATION_TYPE":"U","NORAD_CAT_ID":50850,"ELEMENT_SET_NO":999,"REV_AT_EPOCH":22158,"BSTAR":0.00010765,"MEAN_MOTION_DOT":1.426e-5,"MEAN_MOTION_DDOT":0},{"OBJECT_NAME":"STARLINK-3314","OBJECT_ID":"2022-001BA","EPOCH":"2026-01-04T06:16:12.830304","MEAN_MOTION":15.08837161,"ECCENTRICITY":0.00012356,"INCLINATION":53.2169,"RA_OF_ASC_NODE":108.2731,"ARG_OF_PERICENTER":95.6571,"MEAN_ANOMALY":264.4563,"EPHEMERIS_TYPE":0,"CLASSIFICATION_TYPE":"U","NORAD_CAT_ID":50851,"ELEMENT_SET_NO":999,"REV_AT_EPOCH":22054,"BSTAR":7.3126225e-5,"MEAN_MOTION_DOT":8.76e-6,"MEAN_MOTION_DDOT":0},{"OBJECT_NAME":"STARLINK-3366","OBJECT_ID":"2022-005A","EPOCH":"2026-01-04T00:33:05.268096","MEAN_MOTION":15.08838069,"ECCENTRICITY":0.00013019,"INCLINATION":53.2168,"RA_OF_ASC_NODE":219.4227,"ARG_OF_PERICENTER":90.7642,"MEAN_ANOMALY":269.3499,"EPHEMERIS_TYPE":0,"CLASSIFICATION_TYPE":"U","NORAD_CAT_ID":51104,"ELEMENT_SET_NO":999,"REV_AT_EPOCH":21911,"BSTAR":5.796804e-6,"MEAN_MOTION_DOT":-1.96e-6,"MEAN_MOTION_DDOT":0},{"OBJECT_NAME":"STARLINK-3350","OBJECT_ID":"2022-005B","EPOCH":"2026-01-03T20:45:13.216320","MEAN_MOTION":15.08839471,"ECCENTRICITY":0.00013868,"INCLINATION":53.2164,"RA_OF_ASC_NODE":220.127,"ARG_OF_PERICENTER":95.4641,"MEAN_ANOMALY":264.6509,"EPHEMERIS_TYPE":0,"CLASSIFICATION_TYPE":"U","NORAD_CAT_ID":51105,"ELEMENT_SET_NO":999,"REV_AT_EPOCH":21909,"BSTAR":2.8758055e-5,"MEAN_MOTION_DOT":1.7e-6,"MEAN_MOTION_DDOT":0},{"OBJECT_NAME":"STARLINK-3176","OBJECT_ID":"2022-005C","EPOCH":"2026-01-04T07:21:07.658496","MEAN_MOTION":15.08838902,"ECCENTRICITY":0.0001331,"INCLINATION":53.2172,"RA_OF_ASC_NODE":218.1522,"ARG_OF_PERICENTER":88.2979,"MEAN_ANOMALY":271.8166,"EPHEMERIS_TYPE":0,"CLASSIFICATION_TYPE":"U","NORAD_CAT_ID":51106,"ELEMENT_SET_NO":999,"REV_AT_EPOCH":21915,"BSTAR":3.3683141e-5,"MEAN_MOTION_DOT":2.48e-6,"MEAN_MOTION_DDOT":0}]
